METEOSAT-11 (MSG-4)     
1 40732U 15034A   26117.11503289  .00000055  00000+0  00000+0 0  9993
2 40732   3.0740  71.3738 0001589 344.8606 209.8520  1.00264233  6705
ELEKTRO-L 2             
1 41105U 15074A   26117.06150145 -.00000123  00000+0  00000+0 0  9992
2 41105   6.5682  71.1388 0002270 256.8337 254.7105  1.00270643 37998
INSAT-3DR               
1 41752U 16054A   26117.11850242 -.00000087  00000+0  00000+0 0  9999
2 41752   0.1158  86.2632 0011561 195.0762  50.4223  1.00271598 35307
HIMAWARI-9              
1 41836U 16064A   26117.22683675 -.00000284  00000+0  00000+0 0  9998
2 41836   0.0394 121.3895 0000932 291.6043  24.6583  1.00274476 34699
GOES 16                 
1 41866U 16071A   26117.27828214 -.00000100  00000+0  00000+0 0  9991
2 41866   0.2140  85.2978 0001479 251.8277 233.6094  1.00271264 34597
FENGYUN 4A              
1 41882U 16077A   26116.94632100 -.00000366  00000+0  00000+0 0  9999
2 41882   2.1949  80.7916 0008114 141.1904  97.3367  1.00266708 34412
CYGFM05                 
1 41884U 16078A   26117.02929567  .00024710  00000+0  36334-3 0  9999
2 41884  34.9570 238.7661 0007099  26.6398 333.4689 15.54443402520787
CYGFM04                 
1 41885U 16078B   26117.27695809  .00035230  00000+0  44113-3 0  9999
2 41885  34.9326 207.2180 0006017  76.3213 283.8181 15.58704139521047
CYGFM02                 
1 41886U 16078C   26116.66000060  .00037532  00000+0  42981-3 0  9999
2 41886  34.9407 207.1678 0007146  71.0560 289.0939 15.61017103521108
CYGFM01                 
1 41887U 16078D   26116.71812335  .00028550  00000+0  41048-3 0  9995
2 41887  34.9403 242.2753 0006908  16.6774 343.4176 15.55033742520686
CYGFM08                 
1 41888U 16078E   26116.69600112  .00031913  00000+0  42026-3 0  9995
2 41888  34.9432 223.2640 0008060  49.0046 311.1375 15.57367031520930
CYGFM07                 
1 41890U 16078G   26116.65822152  .00030915  00000+0  40621-3 0  9994
2 41890  34.9448 211.8986 0006474  68.5433 291.5981 15.57445710520956
CYGFM03                 
1 41891U 16078H   26117.27013699  .00033146  00000+0  43466-3 0  9991
2 41891  34.9402 209.7965 0005724  61.7157 298.4145 15.57493395521024
FENGYUN 3D              
1 43010U 17072A   26117.26435434  .00000526  00000+0  27029-3 0  9998
2 43010  99.0094  90.7768 0001414 151.9938 208.1313 14.19729595437761
NOAA 20 (JPSS-1)        
1 43013U 17073A   26117.25150007  .00000057  00000+0  48166-4 0  9996
2 43013  98.7747  57.1734 0002092  71.4766 288.6637 14.19547810437246
GOES 17                 
1 43226U 18022A   26117.20253023 -.00000192  00000+0  00000+0 0  9995
2 43226   0.8088  86.3949 0000659 278.4126 193.8075  1.00271983 29917
FENGYUN 2H              
1 43491U 18050A   26117.00880792 -.00000138  00000+0  00000+0 0  9997
2 43491   2.9019  79.6483 0001672 158.5665  59.2180  1.00274296 28920
